IRIDIUM 7               
1 24793U 97020B   26008.45737495  .00000455  00000+0  14943-3 0  9990
2 24793  86.3951  90.8929 0002263 103.5352 256.6097 14.36133442501358
IRIDIUM 5               
1 24795U 97020D   26008.46779617  .00004900  00000+0  37907-3 0  9999
2 24795  86.3891 348.8887 0106223 119.4030 241.7856 14.96768787516145
IRIDIUM 4               
1 24796U 97020E   26008.45123396  .00000477  00000+0  15426-3 0  9993
2 24796  86.3942  87.6339 0002099  99.0585 261.0850 14.37040126501943
IRIDIUM 914             
1 24836U 97030A   26008.50354036  .00000547  00000+0  16385-3 0  9995
2 24836  86.3930  95.6104 0000702 128.0789 232.0474 14.41100850636699
IRIDIUM 16              
1 24841U 97030F   26008.35561539  .00000623  00000+0  19600-3 0  9990
2 24841  86.4048 119.1333 0004156 104.4046 255.7614 14.38922282496502
IRIDIUM 911             
1 24842U 97030G   26008.39132449  .00000788  00000+0  20672-3 0  9992
2 24842  86.4471 117.6608 0015820 128.8794 231.3824 14.47939685504778
IRIDIUM 17              
1 24870U 97034B   26008.46720050  .00000615  00000+0  19656-3 0  9995
2 24870  86.3991 148.5046 0003473  79.6288 280.5302 14.38056923493089
IRIDIUM 920             
1 24871U 97034C   26008.39935126  .00000634  00000+0  18800-3 0  9991
2 24871  86.3998 127.2933 0013340 120.3860 239.8661 14.41763893496140
